{
  "norad_id": 58809,
  "name": "STARLINK-31169",
  "history": [
    {
      "epoch": "2026-03-28T15:26:28.327488Z",
      "apogee_km": 483.8114682940886,
      "perigee_km": 482.3170986545474,
      "latitude_deg": -9.564898506169862e-06,
      "longitude_deg": 0.6125751390928228,
      "height_km": 482.8886784933684,
      "semi_major_axis_km": 6861.201283474317,
      "eccentricity": 0.0001089,
      "inclination_deg": 43.0047,
      "raan_deg": 58.2915,
      "arg_perigee_deg": 266.3597,
      "mean_anomaly_deg": 93.713,
      "mean_motion_rev_day": 15.27574928
    }
  ]
}